[{"OBJECT_ID":"2011-057A","OBJECT_NAME":"EUTE 16A (EUTE W3C)","NORAD_CAT_ID":"37836","OBJECT_TYPE":"PAYLOAD","PERIOD":"1436.084","INCLINATION":"0.0657","APOGEE":"35803.559","PERIGEE":"35769.153","ECCENTRICITY":"0.000408","MEAN_MOTION":"1.00272643","TLE_LINE1":"1 37836U 11057A   16239.10396720  .00000076  00000-0  00000+0 0  9992","TLE_LINE2":"2 37836   0.0657 359.5914 0004080 157.0625 231.5346  1.00272643 17873","LAUNCH_DATE":"2011-10-07","LAUNCH_SITE":"Xichang Space Center, China","OWNER":"EUROPEAN TELECOMMUNICATIONS SATELLITE ORGANIZATION (EUTELSAT)","ORBIT_TYPE":"Geosynchronous","OPERATIONAL_STATUS":"Operational","satInfo":{"lng":22.77795314844868,"lat":-0.05368104882394752,"elevation":-8.626253166092999,"azimuth":292.22204685155134,"range":42647.216866910116,"height":35786.66278192867,"velocity":3.0742626582639474},"x":139,"y":-330},{"OBJECT_ID":"2011-059A","OBJECT_NAME":"VIASAT 1","NORAD_CAT_ID":"37843","OBJECT_TYPE":"PAYLOAD","PERIOD":"1436.118","INCLINATION":"0.0281","APOGEE":"35799.777","PERIGEE":"35774.250","ECCENTRICITY":"0.0003027","MEAN_MOTION":"1.00270298","TLE_LINE1":"1 37843U 11059A   16238.68380462 -.00000245  00000-0  10000-3 0  9994","TLE_LINE2":"2 37843   0.0281  94.0152 0003027  51.9861 319.5247  1.00270298 18347","LAUNCH_DATE":"2011-10-19","LAUNCH_SITE":"TYURATAM MISSILE AND SPACE COMPLEX","OWNER":"UNITED STATES OF AMERICA","ORBIT_TYPE":"Geosynchronous","OPERATIONAL_STATUS":"Operational","satInfo":{"lng":-106.35762261390936,"lat":2.2574950273997043,"elevation":-6.366087029759271,"azimuth":61.357622613909356,"range":42375.43116967696,"height":35768.672889494,"velocity":3.0757898305634352},"x":-343,"y":101},{"OBJECT_ID":"2011-069A","OBJECT_NAME":"ASIASAT 7","NORAD_CAT_ID":"37933","OBJECT_TYPE":"PAYLOAD","PERIOD":"1436.101","INCLINATION":"0.0152","APOGEE":"35790.360","PERIGEE":"35782.998","ECCENTRICITY":"8.73e-05","MEAN_MOTION":"1.00271491","TLE_LINE1":"1 37933U 11069A   16238.89641199 -.00000362 +00000-0 +00000-0 0  9991","TLE_LINE2":"2 37933 000.0152 177.1136 0000873 312.4951 273.1772 01.00271491008938","LAUNCH_DATE":"2011-11-25","LAUNCH_SITE":"TYURATAM MISSILE AND SPACE COMPLEX","OWNER":"ASIASAT CORP","ORBIT_TYPE":"Geosynchronous","OPERATIONAL_STATUS":"Operational","satInfo":{"lng":48.736092493293945,"lat":0.017666464303468875,"elevation":-8.554124899382765,"azimuth":266.263907506706,"range":42651.44573704495,"height":35798.84722001978,"velocity":3.0741235475593287},"x":269,"y":-236},{"OBJECT_ID":"2011-074A","OBJECT_NAME":"AMOS 5","NORAD_CAT_ID":"37950","OBJECT_TYPE":"PAYLOAD","PERIOD":"1434.548","INCLINATION":"0.5664","APOGEE":"35766.807","PERIGEE":"35745.773","ECCENTRICITY":"0.0002496","MEAN_MOTION":"1.0037999","TLE_LINE1":"1 37950U 11074A   16239.11472117 -.00000148  00000-0  00000+0 0  9995","TLE_LINE2":"2 37950   0.5664  91.2664 0002496  52.0137 308.6800  1.00379990 17353","LAUNCH_DATE":"2011-12-11","LAUNCH_SITE":"TYURATAM MISSILE AND SPACE COMPLEX","OWNER":"ISRAEL","ORBIT_TYPE":"Geosynchronous","OPERATIONAL_STATUS":"Nonoperational","satInfo":{"lng":113.45816107804201,"lat":-1.4742980588649457,"elevation":-10.014176738953006,"azimuth":201.541838921958,"range":42787.98802391728,"height":35771.90455708955,"velocity":3.0750414599985154},"x":328,"y":142},{"OBJECT_ID":"2011-074B","OBJECT_NAME":"LUCH 5A","NORAD_CAT_ID":"37951","OBJECT_TYPE":"PAYLOAD","PERIOD":"1436.059","INCLINATION":"1.6648","APOGEE":"35799.747","PERIGEE":"35771.986","ECCENTRICITY":"0.0003292","MEAN_MOTION":"1.00274389","TLE_LINE1":"1 37951U 11074B   16239.51323774 -.00000074  00000-0  00000+0 0  9992","TLE_LINE2":"2 37951   1.6648 208.2416 0003292 298.9651 179.7973  1.00274389 17275","LAUNCH_DATE":"2011-12-11","LAUNCH_SITE":"TYURATAM MISSILE AND SPACE COMPLEX","OWNER":"COMMONWEALTH OF INDEPENDENT STATES","ORBIT_TYPE":"Geosynchronous","OPERATIONAL_STATUS":"Operational","satInfo":{"lng":83.39768450222729,"lat":-0.028687174190824224,"elevation":-8.606708481363363,"azimuth":231.6023154977727,"range":42620.465977202635,"height":35762.37947156131,"velocity":3.075145201590687},"x":355,"y":-41},{"OBJECT_ID":"2011-077A","OBJECT_NAME":"NIGCOMSAT 1R","NORAD_CAT_ID":"38014","OBJECT_TYPE":"PAYLOAD","PERIOD":"1436.090","INCLINATION":"0.0191","APOGEE":"35801.118","PERIGEE":"35771.839","ECCENTRICITY":"0.0003472","MEAN_MOTION":"1.00272205","TLE_LINE1":"1 38014U 11077A   16238.78936252 +.00000117 +00000-0 +00000-0 0  9993","TLE_LINE2":"2 38014 000.0191 277.6749 0003472 344.4632 038.9808 01.00272205017028","LAUNCH_DATE":"2011-12-19","LAUNCH_SITE":"Xichang Space Center, China","OWNER":"NIGERIA","ORBIT_TYPE":"Geosynchronous","OPERATIONAL_STATUS":"Operational","satInfo":{"lng":100.1484742272859,"lat":1.7778853541119564,"elevation":-6.834819187603801,"azimuth":214.8515257727141,"range":42438.67534152093,"height":35779.21596291929,"velocity":3.074782134994991},"x":352,"y":63},{"OBJECT_ID":"2012-002A","OBJECT_NAME":"FENGYUN 2F","NORAD_CAT_ID":"38049","OBJECT_TYPE":"PAYLOAD","PERIOD":"1436.005","INCLINATION":"1.1178","APOGEE":"35795.451","PERIGEE":"35774.150","ECCENTRICITY":"0.0002526","MEAN_MOTION":"1.00278192","TLE_LINE1":"1 38049U 12002A   16238.79284267 -.00000384  00000-0  00000+0 0  9999","TLE_LINE2":"2 38049   1.1178  76.5533 0002526 203.7367  91.6195  1.00278192 16969","LAUNCH_DATE":"2012-01-13","LAUNCH_SITE":"Xichang Space Center, China","OWNER":"PEOPLES REPUBLIC OF CHINA","ORBIT_TYPE":"Geosynchronous","OPERATIONAL_STATUS":"Operational","satInfo":{"lng":55.2889124149805,"lat":-3.2209893595883305,"elevation":-11.705226728017985,"azimuth":259.71108758501947,"range":43003.92904583243,"height":35798.05620016095,"velocity":3.074523119381892},"x":294,"y":-204},{"OBJECT_ID":"2012-002C","OBJECT_NAME":"FENGYUN 2F AKM","NORAD_CAT_ID":"38072","OBJECT_TYPE":"ROCKET BODY","PERIOD":"1448.717","INCLINATION":"1.0965","APOGEE":"36285.313","PERIGEE":"35781.220","ECCENTRICITY":"0.0059429","MEAN_MOTION":"0.99398268","TLE_LINE1":"1 38072U 12002C   16239.41160662 -.00000197  00000-0  00000+0 0  9999","TLE_LINE2":"2 38072   1.0965  75.2120 0059429 128.1438  92.5013  0.99398268 16614","LAUNCH_DATE":"2012-01-13","LAUNCH_SITE":"Xichang Space Center, China","OWNER":"PEOPLES REPUBLIC OF CHINA","ORBIT_TYPE":"Geosynchronous","OPERATIONAL_STATUS":"N/A, derelict rocket body","satInfo":{"lng":139.14203310549416,"lat":0.6280149301997311,"elevation":-7.864262299694756,"azimuth":175.8579668945058,"range":43048.3219600277,"height":36267.874701577115,"velocity":3.0488233033153826},"x":237,"y":274},{"OBJECT_ID":"2012-007A","OBJECT_NAME":"SES 4","NORAD_CAT_ID":"38087","OBJECT_TYPE":"PAYLOAD","PERIOD":"1436.085","INCLINATION":"0.0189","APOGEE":"35796.472","PERIGEE":"35776.267","ECCENTRICITY":"0.0002396","MEAN_MOTION":"1.00272595","TLE_LINE1":"1 38087U 12007A   16239.38510905 -.00000197  00000-0  00000+0 0  9995","TLE_LINE2":"2 38087   0.0189 353.3740 0002396 168.6947 289.6247  1.00272595 16570","LAUNCH_DATE":"2012-02-14","LAUNCH_SITE":"TYURATAM MISSILE AND SPACE COMPLEX","OWNER":"SOCIÉTÉ EUROPÉENNE DES SATELLITES","ORBIT_TYPE":"Geosynchronous","OPERATIONAL_STATUS":"Operational","satInfo":{"lng":-81.0174832389569,"lat":-0.30093526745693183,"elevation":-8.875368183042756,"azimuth":36.01748323895688,"range":42636.22563460303,"height":35748.15511295371,"velocity":3.0764223358218823},"x":-353,"y":-56},{"OBJECT_ID":"2012-008A","OBJECT_NAME":"BEIDOU G5","NORAD_CAT_ID":"38091","OBJECT_TYPE":"PAYLOAD","PERIOD":"1436.096","INCLINATION":"1.7378","APOGEE":"35798.963","PERIGEE":"35774.196","ECCENTRICITY":"0.0002937","MEAN_MOTION":"1.00271845","TLE_LINE1":"1 38091U 12008A   16239.11875233  .00000029  00000-0  00000+0 0  9993","TLE_LINE2":"2 38091   1.7378  50.0749 0002937 172.6257 213.4979  1.00271845 16566","LAUNCH_DATE":"2012-02-24","LAUNCH_SITE":"Xichang Space Center, China","OWNER":"PEOPLES REPUBLIC OF CHINA","ORBIT_TYPE":"Geosynchronous","OPERATIONAL_STATUS":"Operational","satInfo":{"lng":91.72692927584741,"lat":-0.6553446372770831,"elevation":-9.211609039512973,"azimuth":223.2730707241526,"range":42722.103452789015,"height":35795.77171266675,"velocity":3.074002775014529},"x":358,"y":11},{"OBJECT_ID":"2012-011A","OBJECT_NAME":"INTELSAT 22","NORAD_CAT_ID":"38098","OBJECT_TYPE":"PAYLOAD","PERIOD":"1436.137","INCLINATION":"0.0343","APOGEE":"35795.318","PERIGEE":"35779.464","ECCENTRICITY":"0.000188","MEAN_MOTION":"1.0026895","TLE_LINE1":"1 38098U 12011A   16238.11062819  .00000000  00000-0  10000-3 0  9995","TLE_LINE2":"2 38098   0.0343  65.6446 0001880 103.1448 276.9509  1.00268950 16128","LAUNCH_DATE":"2012-03-25","LAUNCH_SITE":"TYURATAM MISSILE AND SPACE COMPLEX","OWNER":"INTERNATIONAL TELECOMMUNICATIONS SATELLITE ORGANIZATION (INTELSAT)","ORBIT_TYPE":"Geosynchronous","OPERATIONAL_STATUS":"Operational","satInfo":{"lng":78.68215771155165,"lat":-1.3407986002909926,"elevation":-9.879905566539328,"azimuth":236.31784228844833,"range":42794.94585514127,"height":35793.676047437344,"velocity":3.074148352083437},"x":351,"y":-70},{"OBJECT_ID":"2012-012A","OBJECT_NAME":"COSMOS 2479","NORAD_CAT_ID":"38101","OBJECT_TYPE":"PAYLOAD","PERIOD":"1435.318","INCLINATION":"1.0844","APOGEE":"35786.715","PERIGEE":"35755.988","ECCENTRICITY":"0.0003645","MEAN_MOTION":"1.00326192","TLE_LINE1":"1 38101U 12012A   16239.07331050  .00000016  00000-0  00000+0 0  9995","TLE_LINE2":"2 38101   1.0844  61.1857 0003645 189.5743 115.6892  1.00326192 16143","LAUNCH_DATE":"2012-03-30","LAUNCH_SITE":"TYURATAM MISSILE AND SPACE COMPLEX","OWNER":"COMMONWEALTH OF INDEPENDENT STATES","ORBIT_TYPE":"Geosynchronous","OPERATIONAL_STATUS":"Nonoperational","satInfo":{"lng":-125.60278299834134,"lat":2.6360030558825427,"elevation":-5.996421647371985,"azimuth":80.60278299834133,"range":42322.27981304502,"height":35757.1127014379,"velocity":3.0756479813156536},"x":-291,"y":208}]